[{"OBJECT_NAME":"NOAA 21 (JPSS-2)","OBJECT_ID":"2022-150A","EPOCH":"2026-03-09T22:24:21.794976","MEAN_MOTION":14.19552367,"ECCENTRICITY":0.00026632,"INCLINATION":98.7554,"RA_OF_ASC_NODE":9.1966,"ARG_OF_PERICENTER":105.7668,"MEAN_ANOMALY":254.3802,"EPHEMERIS_TYPE":0,"CLASSIFICATION_TYPE":"U","NORAD_CAT_ID":54234,"ELEMENT_SET_NO":999,"REV_AT_EPOCH":17246,"BSTAR":8.7164891e-5,"MEAN_MOTION_DOT":1.4e-6,"MEAN_MOTION_DDOT":0},{"OBJECT_NAME":"CZ-6A DEB","OBJECT_ID":"2022-151TD","EPOCH":"2026-03-09T22:38:10.164480","MEAN_MOTION":14.0700759,"ECCENTRICITY":0.00592314,"INCLINATION":98.8689,"RA_OF_ASC_NODE":67.5738,"ARG_OF_PERICENTER":283.9712,"MEAN_ANOMALY":75.4875,"EPHEMERIS_TYPE":0,"CLASSIFICATION_TYPE":"U","NORAD_CAT_ID":54964,"ELEMENT_SET_NO":999,"REV_AT_EPOCH":17043,"BSTAR":0.00014708215,"MEAN_MOTION_DOT":2.05e-6,"MEAN_MOTION_DDOT":0}]
